ONEWEB-0278             
1 48996U 21060AF  26195.09277561  .00000065  00000+0  13615-3 0  9994
2 48996  87.9080 223.4299 0002226  89.4083 270.7303 13.16594437243234
ONEWEB-0279             
1 48997U 21060AG  26195.10069080  .00000077  00000+0  16756-3 0  9994
2 48997  87.9083 223.4259 0001989  99.3599 260.7757 13.16594868243163
ONEWEB-0280             
1 48998U 21060AH  26195.11572624  .00000014  00000+0  22112-5 0  9995
2 48998  87.9080 223.4275 0002424  94.9418 265.1990 13.16595054243105
ONEWEB-0281             
1 48999U 21060AJ  26195.12127157 -.00000008  00000+0 -54750-4 0  9991
2 48999  87.9080 223.4221 0002086  92.3237 267.8133 13.16593330243172
ONEWEB-0282             
1 49000U 21060AK  26195.15135271  .00000054  00000+0  10849-3 0  9993
2 49000  87.9075 223.4240 0002139  96.8286 263.3088 13.16594791243153
ONEWEB-0283             
1 49001U 21060AL  26195.14026656  .00000059  00000+0  12081-3 0  9994
2 49001  87.9075 223.4255 0001986  98.1714 261.9642 13.16593184243166
ONEWEB-0284             
1 49002U 21060AM  26195.13394285  .00000031  00000+0  48547-4 0  9997
2 49002  87.9080 223.4203 0002373  92.7631 267.3772 13.16593541243144
ONEWEB-0285             
1 49075U 21075A   26194.89576852  .00000556  00000+0  15096-2 0  9990
2 49075  87.8969 345.3519 0001837  91.1532 268.9807 13.12439257238712
ONEWEB-0286             
1 49076U 21075B   26194.95407057  .00000393  00000+0  10583-2 0  9993
2 49076  87.8959 345.3543 0001749  88.8221 271.3108 13.12441734238073
ONEWEB-0287             
1 49077U 21075C   26194.97211735  .00000043  00000+0  77259-4 0  9999
2 49077  87.9142   0.5366 0001866  79.0372 281.0970 13.17648210237157
ONEWEB-0288             
1 49078U 21075D   26194.93048264  .00000112  00000+0  27604-3 0  9996
2 49078  87.8967 345.3382 0001973  89.4650 270.6704 13.12443089238694
ONEWEB-0289             
1 49079U 21075E   26195.01093132  .00000038  00000+0  64117-4 0  9999
2 49079  87.9150   0.5473 0002276  96.7398 263.3993 13.17649990237735
ONEWEB-0290             
1 49080U 21075F   26194.98393109  .00000033  00000+0  51507-4 0  9997
2 49080  87.9153   0.5254 0002331  96.8545 263.2852 13.17650292237149
ONEWEB-0291             
1 49081U 21075G   26194.96875838  .00000038  00000+0  65409-4 0  9991
2 49081  87.9143   0.5343 0002116  84.9738 275.1635 13.17646710237131
ONEWEB-0293             
1 49082U 21075H   26194.99405145  .00000024  00000+0  29901-4 0  9997
2 49082  87.9144   0.5316 0002020  92.8845 267.2517 13.17650481237168
ONEWEB-0294             
1 49083U 21075J   26194.93725924 -.00011109  00000+0 -30926-1 0  9996
2 49083  87.8968 345.3408 0002499 101.2284 258.9126 13.12502446238083
ONEWEB-0295             
1 49084U 21075K   26194.99321455  .00000022  00000+0  23162-4 0  9991
2 49084  87.9143   0.5361 0002004  84.9181 275.2180 13.17650188237121
ONEWEB-0296             
1 49085U 21075L   26194.91692785 -.00000317  00000+0 -91635-3 0  9999
2 49085  87.8967 345.3529 0002055  88.2867 271.8497 13.12443616238085
ONEWEB-0297             
1 49086U 21075M   26194.87119172  .00000356  00000+0  95508-3 0  9993
2 49086  87.8956 345.3691 0001878  92.6187 267.5157 13.12442500238682
ONEWEB-0298             
1 49087U 21075N   26194.99758929  .00000076  00000+0  16313-3 0  9992
2 49087  87.9145   0.5334 0001736  89.1844 270.9486 13.17649066237157
ONEWEB-0299             
1 49088U 21075P   26194.99911995  .00000048  00000+0  90357-4 0  9997
2 49088  87.9155   0.5155 0001837  85.6232 274.5110 13.17648379237132
ONEWEB-0300             
1 49089U 21075Q   26194.93980507  .00000357  00000+0  95721-3 0  9999
2 49089  87.8971 345.3380 0001480  94.3388 265.7910 13.12442966238715
ONEWEB-0301             
1 49090U 21075R   26194.92370243 -.00000156  00000+0 -47019-3 0  9996
2 49090  87.8968 345.3390 0001526  99.5051 260.6250 13.12443961238075
ONEWEB-0302             
1 49091U 21075S   26194.83391439 -.00000393  00000+0 -11289-2 0  9999
2 49091  87.8965 345.3691 0002188  94.6101 265.5277 13.12441600238042
ONEWEB-0304             
1 49092U 21075T   26194.97380669 -.00000095  00000+0 -27720-3 0  9995
2 49092  87.9142   0.5409 0001929  87.3214 272.8139 13.17647491237109
ONEWEB-0305             
1 49093U 21075U   26194.96705737 -.00000025  00000+0 -98211-4 0  9999
2 49093  87.9150   0.5284 0001940  80.3487 279.7863 13.17647804237139
ONEWEB-0308             
1 49094U 21075V   26194.90336895 -.00000379  00000+0 -10884-2 0  9999
2 49094  87.8970 345.3476 0001840  96.3150 263.8188 13.12442079238064
ONEWEB-0309             
1 49095U 21075W   26194.97042845  .00000037  00000+0  61009-4 0  9992
2 49095  87.9143   0.5346 0002353  93.7184 266.4217 13.17650023237103
ONEWEB-0310             
1 49096U 21075X   26194.91861779 -.00000258  00000+0 -75310-3 0  9998
2 49096  87.8961 345.3638 0001867  96.2061 263.9280 13.12443990238691
ONEWEB-0311             
1 49097U 21075Y   26194.97718134  .00000027  00000+0  35908-4 0  9993
2 49097  87.9140   0.5330 0001749  78.8338 281.2990 13.17648381237150
ONEWEB-0312             
1 49098U 21075Z   26194.99237500  .00000042  00000+0  73770-4 0  9995
2 49098  87.9141   0.5402 0002045  85.3573 274.7792 13.17648538237135
